{
  "type": "FeatureCollection",
  "features": [
    {
      "type": "Feature",
      "properties": {
        "norad_id": 38755,
        "name": "SPOT 6",
        "group": "resource",
        "lat": 50.684494911183755,
        "lon": 55.991006918118245,
        "alt_km": 692.434056739723,
        "timestamp": "2025-12-27T13:34:48.946640+00:00",
        "meta_object_name": "SPOT 6",
        "meta_object_id": "2012-047A",
        "meta_epoch": "2025-12-27T06:45:34.632576",
        "meta_mean_motion": 14.58544812,
        "meta_eccentricity": 0.0001229,
        "meta_inclination": 98.1549,
        "meta_ra_of_asc_node": 65.7964,
        "meta_arg_of_pericenter": 78.8165,
        "meta_mean_anomaly": 281.3173,
        "meta_ephemeris_type": 0,
        "meta_classification_type": "U",
        "meta_norad_cat_id": 38755,
        "meta_element_set_no": 999,
        "meta_rev_at_epoch": 70799,
        "meta_bstar": 7.4575105e-05,
        "meta_mean_motion_dot": 3.01e-06,
        "meta_mean_motion_ddot": 0,
        "tle_line1": "1 38755U 12047A   25361.28165084  .00000301  00000+0  74575-4 0  9998",
        "tle_line2": "2 38755  98.1549  65.7964 0001229  78.8165 281.3173 14.58544812707991"
      },
      "geometry": {
        "type": "Point",
        "coordinates": [
          55.991006918118245,
          50.684494911183755
        ]
      }
    },
    {
      "type": "Feature",
      "properties": {
        "norad_id": 39019,
        "name": "PLEIADES 1B",
        "group": "resource",
        "lat": -49.31460911439058,
        "lon": 83.61055862426285,
        "alt_km": 705.2669656372818,
        "timestamp": "2025-12-27T13:34:48.946650+00:00",
        "meta_object_name": "PLEIADES 1B",
        "meta_object_id": "2012-068A",
        "meta_epoch": "2025-12-27T07:13:24.356640",
        "meta_mean_motion": 14.58566075,
        "meta_eccentricity": 0.00011449,
        "meta_inclination": 98.1772,
        "meta_ra_of_asc_node": 73.7215,
        "meta_arg_of_pericenter": 87.4119,
        "meta_mean_anomaly": 272.7212,
        "meta_ephemeris_type": 0,
        "meta_classification_type": "U",
        "meta_norad_cat_id": 39019,
        "meta_element_set_no": 999,
        "meta_rev_at_epoch": 69579,
        "meta_bstar": 9.0497118e-05,
        "meta_mean_motion_dot": 3.75e-06,
        "meta_mean_motion_ddot": 0,
        "tle_line1": "1 39019U 12068A   25361.30097635  .00000375  00000+0  90497-4 0  9996",
        "tle_line2": "2 39019  98.1772  73.7215 0001144  87.4119 272.7212 14.58566075695799"
      },
      "geometry": {
        "type": "Point",
        "coordinates": [
          83.61055862426285,
          -49.31460911439058
        ]
      }
    },
    {
      "type": "Feature",
      "properties": {
        "norad_id": 39030,
        "name": "GOKTURK 2",
        "group": "resource",
        "lat": -22.768619202890136,
        "lon": -154.2596251195021,
        "alt_km": 650.2602699307272,
        "timestamp": "2025-12-27T13:34:48.946660+00:00",
        "meta_object_name": "GOKTURK 2",
        "meta_object_id": "2012-073A",
        "meta_epoch": "2025-12-27T07:10:23.385792",
        "meta_mean_motion": 14.75310164,
        "meta_eccentricity": 0.00014997,
        "meta_inclination": 97.6888,
        "meta_ra_of_asc_node": 202.2361,
        "meta_arg_of_pericenter": 105.8261,
        "meta_mean_anomaly": 254.3115,
        "meta_ephemeris_type": 0,
        "meta_classification_type": "U",
        "meta_norad_cat_id": 39030,
        "meta_element_set_no": 999,
        "meta_rev_at_epoch": 69916,
        "meta_bstar": 6.3204224e-05,
        "meta_mean_motion_dot": 3.81e-06,
        "meta_mean_motion_ddot": 0,
        "tle_line1": "1 39030U 12073A   25361.29888178  .00000381  00000+0  63204-4 0  9996",
        "tle_line2": "2 39030  97.6888 202.2361 0001499 105.8261 254.3115 14.75310164699169"
      },
      "geometry": {
        "type": "Point",
        "coordinates": [
          -154.2596251195021,
          -22.768619202890136
        ]
      }
    },
    {
      "type": "Feature",
      "properties": {
        "norad_id": 39084,
        "name": "LANDSAT 8",
        "group": "resource",
        "lat": 42.4548582707059,
        "lon": 61.83326263243043,
        "alt_km": 698.5380707777158,
        "timestamp": "2025-12-27T13:34:48.946670+00:00",
        "meta_object_name": "LANDSAT 8",
        "meta_object_id": "2013-008A",
        "meta_epoch": "2025-12-27T06:47:28.853376",
        "meta_mean_motion": 14.57117215,
        "meta_eccentricity": 0.00010558,
        "meta_inclination": 98.2054,
        "meta_ra_of_asc_node": 69.1405,
        "meta_arg_of_pericenter": 94.4738,
        "meta_mean_anomaly": 265.6581,
        "meta_ephemeris_type": 0,
        "meta_classification_type": "U",
        "meta_norad_cat_id": 39084,
        "meta_element_set_no": 999,
        "meta_rev_at_epoch": 67286,
        "meta_bstar": 0.0001140506,
        "meta_mean_motion_dot": 4.69e-06,
        "meta_mean_motion_ddot": 0,
        "tle_line1": "1 39084U 13008A   25361.28297284  .00000469  00000+0  11405-3 0  9997",
        "tle_line2": "2 39084  98.2054  69.1405 0001055  94.4738 265.6581 14.57117215672861"
      },
      "geometry": {
        "type": "Point",
        "coordinates": [
          61.83326263243043,
          42.4548582707059
        ]
      }
    },
    {
      "type": "Feature",
      "properties": {
        "norad_id": 39086,
        "name": "SARAL",
        "group": "resource",
        "lat": 8.660922030943427,
        "lon": 6.615735633440954,
        "alt_km": 784.2700569105173,
        "timestamp": "2025-12-27T13:34:48.946680+00:00",
        "meta_object_name": "SARAL",
        "meta_object_id": "2013-009A",
        "meta_epoch": "2025-12-27T06:04:48.844704",
        "meta_mean_motion": 14.32762198,
        "meta_eccentricity": 0.00029437,
        "meta_inclination": 98.5504,
        "meta_ra_of_asc_node": 184.9943,
        "meta_arg_of_pericenter": 81.5712,
        "meta_mean_anomaly": 278.5805,
        "meta_ephemeris_type": 0,
        "meta_classification_type": "U",
        "meta_norad_cat_id": 39086,
        "meta_element_set_no": 999,
        "meta_rev_at_epoch": 67098,
        "meta_bstar": 7.5637908e-05,
        "meta_mean_motion_dot": 1.62e-06,
        "meta_mean_motion_ddot": 0,
        "tle_line1": "1 39086U 13009A   25361.25334311  .00000162  00000+0  75638-4 0  9999",
        "tle_line2": "2 39086  98.5504 184.9943 0002943  81.5712 278.5805 14.32762198670987"
      },
      "geometry": {
        "type": "Point",
        "coordinates": [
          6.615735633440954,
          8.660922030943427
        ]
      }
    },
    {
      "type": "Feature",
      "properties": {
        "norad_id": 39150,
        "name": "GAOFEN-1",
        "group": "resource",
        "lat": 58.75865052684286,
        "lon": -94.75374082144894,
        "alt_km": 622.6415453913705,
        "timestamp": "2025-12-27T13:34:48.946689+00:00",
        "meta_object_name": "GAOFEN-1",
        "meta_object_id": "2013-018A",
        "meta_epoch": "2025-12-27T06:31:58.823904",
        "meta_mean_motion": 14.76504092,
        "meta_eccentricity": 0.00185581,
        "meta_inclination": 97.9304,
        "meta_ra_of_asc_node": 71.6729,
        "meta_arg_of_pericenter": 99.0325,
        "meta_mean_anomaly": 261.2986,
        "meta_ephemeris_type": 0,
        "meta_classification_type": "U",
        "meta_norad_cat_id": 39150,
        "meta_element_set_no": 999,
        "meta_rev_at_epoch": 68287,
        "meta_bstar": 8.0993683e-05,
        "meta_mean_motion_dot": 5.15e-06,
        "meta_mean_motion_ddot": 0,
        "tle_line1": "1 39150U 13018A   25361.27220861  .00000515  00000+0  80994-4 0  9990",
        "tle_line2": "2 39150  97.9304  71.6729 0018558  99.0325 261.2986 14.76504092682872"
      },
      "geometry": {
        "type": "Point",
        "coordinates": [
          -94.75374082144894,
          58.75865052684286
        ]
      }
    },
    {
      "type": "Feature",
      "properties": {
        "norad_id": 39160,
        "name": "VNREDSAT 1",
        "group": "resource",
        "lat": -72.75584130118555,
        "lon": 83.02147980043027,
        "alt_km": 685.3191005600229,
        "timestamp": "2025-12-27T13:34:48.946700+00:00",
        "meta_object_name": "VNREDSAT 1",
        "meta_object_id": "2013-021B",
        "meta_epoch": "2025-12-27T07:21:48.569760",
        "meta_mean_motion": 14.64943957,
        "meta_eccentricity": 0.00011677,
        "meta_inclination": 97.935,
        "meta_ra_of_asc_node": 56.0696,
        "meta_arg_of_pericenter": 83.372,
        "meta_mean_anomaly": 276.7616,
        "meta_ephemeris_type": 0,
        "meta_classification_type": "U",
        "meta_norad_cat_id": 39160,
        "meta_element_set_no": 999,
        "meta_rev_at_epoch": 67512,
        "meta_bstar": 0.00012891738,
        "meta_mean_motion_dot": 6.44e-06,
        "meta_mean_motion_ddot": 0,
        "tle_line1": "1 39160U 13021B   25361.30681215  .00000644  00000+0  12892-3 0  9997",
        "tle_line2": "2 39160  97.9350  56.0696 0001167  83.3720 276.7616 14.64943957675122"
      },
      "geometry": {
        "type": "Point",
        "coordinates": [
          83.02147980043027,
          -72.75584130118555
        ]
      }
    }
  ]
}